{
  "source": {
    "type": "design_continuous_thrust",
    "generated_utc": "2026-05-21T14:57:37Z",
    "hard_constraint_passed": true
  },
  "earth": {
    "mu_km3_s2": 398600.4418,
    "Re_km": 6378.137,
    "J2": 0.00108262668,
    "omega_e_rad_s": 7.2921158553e-05,
    "use_J2": true,
    "numerical_propagation_step_s": 120.0
  },
  "launch_mass_kg": 6515.0,
  "t0_epoch": "2026-05-14T13:09:19Z",
  "t0_orbit": {
    "semi_major_axis_m": 29478137.0,
    "eccentricity": 0.77684692,
    "inclination_deg": 16.5,
    "argument_of_perigee_deg": 200.0,
    "raan_deg": 8.53237,
    "mean_anomaly_deg": 1.85437
  },
  "maneuver_count": 5,
  "maneuvers": [
    {
      "maneuver_index": 1,
      "Tn_start_min": 1214.0757696303488,
      "burn_duration_min": 67.97418403625488,
      "control_fuel_%": 1.73,
      "settle_duration_s": 240.0,
      "direction_mode": "local_horizontal_yaw",
      "yaw_angle_deg": 10.0,
      "delta_deg": -9.963104388550557,
      "dv_direction": 1,
      "orbit_control_thrust_n": 490.0,
      "orbit_control_isp_s": 314.1,
      "settle_thrust_n": 20.0,
      "settle_isp_s": 290.0
    },
    {
      "maneuver_index": 2,
      "Tn_start_min": 3967.605915052389,
      "burn_duration_min": 55.050432840983376,
      "control_fuel_%": 1.73,
      "settle_duration_s": 240.0,
      "direction_mode": "local_horizontal_yaw",
      "yaw_angle_deg": 10.0,
      "delta_deg": -9.958004994904167,
      "dv_direction": 1,
      "orbit_control_thrust_n": 490.0,
      "orbit_control_isp_s": 314.1,
      "settle_thrust_n": 20.0,
      "settle_isp_s": 290.0
    },
    {
      "maneuver_index": 3,
      "Tn_start_min": 7010.496147550619,
      "burn_duration_min": 73.56820106506348,
      "control_fuel_%": 1.73,
      "settle_duration_s": 240.0,
      "direction_mode": "local_horizontal_yaw",
      "yaw_angle_deg": 14.0,
      "delta_deg": -13.941686640856842,
      "dv_direction": 1,
      "orbit_control_thrust_n": 490.0,
      "orbit_control_isp_s": 314.1,
      "settle_thrust_n": 20.0,
      "settle_isp_s": 290.0
    },
    {
      "maneuver_index": 4,
      "Tn_start_min": 9525.383056071536,
      "burn_duration_min": 64.84060033162496,
      "control_fuel_%": 1.73,
      "settle_duration_s": 240.0,
      "direction_mode": "local_horizontal_yaw",
      "yaw_angle_deg": 12.732632889190517,
      "delta_deg": -12.673546682781621,
      "dv_direction": 1,
      "orbit_control_thrust_n": 490.0,
      "orbit_control_isp_s": 314.1,
      "settle_thrust_n": 20.0,
      "settle_isp_s": 290.0
    },
    {
      "maneuver_index": 5,
      "Tn_start_min": 10379.14252821915,
      "burn_duration_min": 25.671954472860307,
      "control_fuel_%": 1.73,
      "settle_duration_s": 240.0,
      "direction_mode": "local_horizontal_yaw",
      "yaw_angle_deg": -178.52376916094548,
      "delta_deg": 1.4690626261862838,
      "dv_direction": -1,
      "orbit_control_thrust_n": 490.0,
      "orbit_control_isp_s": 314.1,
      "settle_thrust_n": 20.0,
      "settle_isp_s": 290.0
    }
  ]
}